{"fetched_at":"2026-03-29T16:36:15Z","count":15609,"tles":[{"name":"STARLINK-35022","line1":"1 65409U 25192F   26087.87635563  .00028399  00000+0  96689-3 0  9990","line2":"2 65409  53.1610 143.1039 0001315  85.4583 274.6568 15.30213945 32327","category":"Starlink"}]}